{
    "links": {
        "self": "http://www.neowsapp.com/rest/v1/neo/3597226?api_key=iIulBulltgU6a56xZRHN4H3l9WmuAYTsLGpBGhQ2"
    },
    "id": "3597226",
    "neo_reference_id": "3597226",
    "name": "(2012 CD)",
    "designation": "2012 CD",
    "nasa_jpl_url": "http://ssd.jpl.nasa.gov/sbdb.cgi?sstr=3597226",
    "absolute_magnitude_h": 24.2,
    "estimated_diameter": {
        "kilometers": {
            "estimated_diameter_min": 0.0384197891,
            "estimated_diameter_max": 0.0859092601
        },
        "meters": {
            "estimated_diameter_min": 38.4197891064,
            "estimated_diameter_max": 85.9092601232
        },
        "miles": {
            "estimated_diameter_min": 0.0238729428,
            "estimated_diameter_max": 0.0533815229
        },
        "feet": {
            "estimated_diameter_min": 126.0491808919,
            "estimated_diameter_max": 281.8545369825
        }
    },
    "is_potentially_hazardous_asteroid": false,
    "close_approach_data": [
        {
            "close_approach_date": "2012-02-07",
            "close_approach_date_full": "2012-Feb-07 10:43",
            "epoch_date_close_approach": 1328611380000,
            "relative_velocity": {
                "kilometers_per_second": "12.6303350731",
                "kilometers_per_hour": "45469.20626325",
                "miles_per_hour": "28252.7965250733"
            },
            "miss_distance": {
                "astronomical": "0.1473865796",
                "lunar": "57.3333794644",
                "kilometers": "22048718.374745452",
                "miles": "13700438.3003011576"
            },
            "orbiting_body": "Earth"
        },
        {
            "close_approach_date": "2012-06-20",
            "close_approach_date_full": "2012-Jun-20 07:43",
            "epoch_date_close_approach": 1340178180000,
            "relative_velocity": {
                "kilometers_per_second": "12.235582656",
                "kilometers_per_hour": "44048.0975616292",
                "miles_per_hour": "27369.7748432245"
            },
            "miss_distance": {
                "astronomical": "0.4301802579",
                "lunar": "167.3401203231",
                "kilometers": "64354050.297890673",
                "miles": "39987752.5983823674"
            },
            "orbiting_body": "Earth"
        }
    ],
    "orbital_data": {
        "orbit_id": "4",
        "orbit_determination_date": "2017-04-06 08:51:04",
        "first_observation_date": "2012-02-01",
        "last_observation_date": "2012-02-02",
        "data_arc_in_days": 1,
        "observations_used": 16,
        "orbit_uncertainty": "9",
        "minimum_orbit_intersection": ".144529",
        "jupiter_tisserand_invariant": "4.787",
        "epoch_osculation": "2455959.5",
        "eccentricity": ".2081777341669566",
        "semi_major_axis": "1.34275618210674",
        "inclination": "23.37165555648174",
        "ascending_node_longitude": "311.5147997249655",
        "orbital_period": "568.3216069054223",
        "perihelion_distance": "1.063224242577085",
        "perihelion_argument": "232.690065079753",
        "aphelion_distance": "1.622288121636394",
        "perihelion_time": "2456014.773858279598",
        "mean_anomaly": "324.9870975537858",
        "mean_motion": ".6334441549041961",
        "equinox": "J2000",
        "orbit_class": {
            "orbit_class_type": "AMO",
            "orbit_class_description": "Near-Earth asteroid orbits similar to that of 1221 Amor",
            "orbit_class_range": "1.017 AU < q (perihelion) < 1.3 AU"
        }
    },
    "is_sentry_object": false
}